[{"OBJECT_NAME":"STARLINK-30783","OBJECT_ID":"2023-162N","EPOCH":"2026-03-09T05:15:40.575168","MEAN_MOTION":15.2756185,"ECCENTRICITY":5.79e-5,"INCLINATION":43.0004,"RA_OF_ASC_NODE":131.8664,"ARG_OF_PERICENTER":38.3391,"MEAN_ANOMALY":321.7502,"EPHEMERIS_TYPE":0,"CLASSIFICATION_TYPE":"U","NORAD_CAT_ID":58130,"ELEMENT_SET_NO":999,"REV_AT_EPOCH":13227,"BSTAR":0.00034331605,"MEAN_MOTION_DOT":9.192e-5,"MEAN_MOTION_DDOT":0},{"OBJECT_NAME":"ION SCV-017","OBJECT_ID":"2025-052W","EPOCH":"2026-03-09T17:11:44.577024","MEAN_MOTION":15.26881798,"ECCENTRICITY":0.0023746,"INCLINATION":97.4016,"RA_OF_ASC_NODE":324.7516,"ARG_OF_PERICENTER":44.9875,"MEAN_ANOMALY":315.3282,"EPHEMERIS_TYPE":0,"CLASSIFICATION_TYPE":"U","NORAD_CAT_ID":63230,"ELEMENT_SET_NO":999,"REV_AT_EPOCH":5485,"BSTAR":0.00024539061,"MEAN_MOTION_DOT":6.457e-5,"MEAN_MOTION_DDOT":0}]
